NORAD_CAT_ID,OBJECT_NAME,OBJECT_TYPE,EPOCH,MEAN_MOTION,ECCENTRICITY,INCLINATION,RA_OF_ASC_NODE,ARG_OF_PERICENTER,MEAN_ANOMALY,BSTAR,MEAN_MOTION_DOT,MEAN_MOTION_DDOT,TLE_LINE0,TLE_LINE1,TLE_LINE2,SEMIMAJOR_AXIS,PERIOD,APOGEE,PERIGEE,DECAYED
54796.0,STARLINK-5415,PAYLOAD,2023-11-15 03:20:07,15.0885107,0.000144,53.2168,224.6939,95.0065,265.1092,1.3924e-05,-6.6e-07,0.0,0 STARLINK-5415,1 54796U 22175AQ  23319.13897938 -.00000066  00000-0  13924-4 0  9990,2 54796  53.2168 224.6939 0001440  95.0065 265.1092 15.08851070 50327,6917.847,95.437,540.708,538.715,0.0
54796.0,STARLINK-5415,PAYLOAD,2023-11-16 03:10:54,15.08845212,0.0001544,53.2179,220.2332,101.3882,258.7284,4.0663e-05,3.59e-06,0.0,0 STARLINK-5415,1 54796U 22175AQ  23320.13257983  .00000359  00000-0  40663-4 0  9996,2 54796  53.2179 220.2332 0001544 101.3882 258.7284 15.08845212 50479,6917.864,95.437,540.798,538.661,0.0
54796.0,STARLINK-5415,PAYLOAD,2023-11-17 03:01:42,15.08841391,0.000169,53.2176,215.771,128.7089,231.4054,-1.7523e-05,-5.67e-06,0.0,0 STARLINK-5415,1 54796U 22175AQ  23321.12618117 -.00000567  00000-0 -17523-4 0  9998,2 54796  53.2176 215.7710 0001690 128.7089 231.4054 15.08841391 50623,6917.876,95.437,540.91,538.572,0.0
54796.0,STARLINK-5415,PAYLOAD,2023-11-17 17:20:11,15.0883237,0.0001683,53.2197,213.0941,104.023,256.0949,-1.9504e-05,-5.98e-06,0.0,0 STARLINK-5415,1 54796U 22175AQ  23321.72235018 -.00000598  00000-0 -19504-4 0  9994,2 54796  53.2197 213.0941 0001683 104.0230 256.0949 15.08832370 50713,6917.904,95.438,540.933,538.604,0.0
54796.0,STARLINK-5415,PAYLOAD,2023-11-18 09:14:02,15.08836295,0.0001541,53.2187,210.1237,88.1166,272.0003,4.8944e-06,-2.1e-06,0.0,0 STARLINK-5415,1 54796U 22175AQ  23322.38474987 -.00000210  00000-0  48944-5 0  9998,2 54796  53.2187 210.1237 0001541  88.1166 272.0003 15.08836295 52970,6917.892,95.438,540.823,538.691,0.0
54796.0,STARLINK-5415,PAYLOAD,2023-11-18 17:10:58,15.08844847,0.0001457,53.2176,208.6371,88.4379,271.678,-5.2189e-05,-1.119e-05,0.0,0 STARLINK-5415,1 54796U 22175AQ  23322.71594923 -.00001119  00000-0 -52189-4 0  9993,2 54796  53.2176 208.6371 0001457  88.4379 271.6780 15.08844847 50869,6917.866,95.437,540.739,538.723,0.0
54796.0,STARLINK-5415,PAYLOAD,2023-11-19 09:04:49,15.08836411,0.0001465,53.2167,205.6645,91.838,268.2779,7.7514e-05,9.46e-06,0.0,0 STARLINK-5415,1 54796U 22175AQ  23323.37834875  .00000946  00000-0  77514-4 0  9993,2 54796  53.2167 205.6645 0001465  91.8380 268.2779 15.08836411 53129,6917.891,95.438,540.77,538.743,0.0
54796.0,STARLINK-5415,PAYLOAD,2023-11-19 20:12:31,15.08836459,0.0001464,53.2167,203.5828,88.0447,272.0713,6.7561e-05,7.87e-06,0.0,0 STARLINK-5415,1 54796U 22175AQ  23323.84203005  .00000787  00000-0  67561-4 0  9994,2 54796  53.2167 203.5828 0001464  88.0447 272.0713 15.08836459 51031,6917.891,95.438,540.769,538.743,0.0
54796.0,STARLINK-5415,PAYLOAD,2023-11-19 21:47:54,15.08837204,0.000148,53.217,203.2856,87.8567,272.2594,7.0129e-05,8.28e-06,0.0,0 STARLINK-5415,1 54796U 22175AQ  23323.90826933  .00000828  00000-0  70129-4 0  9992,2 54796  53.2170 203.2856 0001480  87.8567 272.2594 15.08837204 53200,6917.889,95.438,540.778,538.73,0.0
54796.0,STARLINK-5415,PAYLOAD,2023-11-20 08:55:36,15.08836327,0.0001543,53.2162,201.2042,88.5378,271.5791,2.8853e-05,1.71e-06,0.0,0 STARLINK-5415,1 54796U 22175AQ  23324.37195152  .00000171  00000-0  28853-4 0  9994,2 54796  53.2162 201.2042 0001543  88.5378 271.5791 15.08836327 53277,6917.892,95.438,540.824,538.689,0.0
54796.0,STARLINK-5415,PAYLOAD,2023-11-20 21:38:41,15.08835368,0.0001543,53.2165,198.8253,88.4884,271.6285,1.7873e-05,-4e-08,0.0,0 STARLINK-5415,1 54796U 22175AQ  23324.90187321 -.00000004  00000-0  17873-4 0  9998,2 54796  53.2165 198.8253 0001543  88.4884 271.6285 15.08835368 53358,6917.895,95.438,540.827,538.692,0.0
54796.0,STARLINK-5415,PAYLOAD,2023-11-21 00:49:27,15.08840972,0.0001528,53.2161,198.2301,87.7484,272.3683,-6.6777e-06,-3.94e-06,0.0,0 STARLINK-5415,1 54796U 22175AQ  23325.03435031 -.00000394  00000-0 -66777-5 0  9998,2 54796  53.2161 198.2301 0001528  87.7484 272.3683 15.08840972 51213,6917.877,95.437,540.799,538.685,0.0
54796.0,STARLINK-5415,PAYLOAD,2023-11-21 08:46:23,15.08837264,0.0001633,53.2175,196.743,84.8359,275.282,-3.5949e-06,-3.45e-06,0.0,0 STARLINK-5415,1 54796U 22175AQ  23325.36555328 -.00000345  00000-0 -35949-5 0  9999,2 54796  53.2175 196.7430 0001633  84.8359 275.2820 15.08837264 53420,6917.889,95.438,540.883,538.624,0.0
54796.0,STARLINK-5415,PAYLOAD,2023-11-21 21:29:28,15.08839699,0.0001664,53.2177,194.3642,94.2901,265.8282,-5.5287e-06,-3.76e-06,0.0,0 STARLINK-5415,1 54796U 22175AQ  23325.89547297 -.00000376  00000-0 -55287-5 0  9994,2 54796  53.2177 194.3642 0001664  94.2901 265.8282 15.08839699 53503,6917.881,95.438,540.897,538.595,0.0
54796.0,STARLINK-5415,PAYLOAD,2023-11-22 00:40:14,15.08839527,0.0001659,53.2179,193.769,87.1663,272.9519,5.6574e-05,6.12e-06,0.0,0 STARLINK-5415,1 54796U 22175AQ  23326.02795128  .00000612  00000-0  56574-4 0  9998,2 54796  53.2179 193.7690 0001659  87.1663 272.9519 15.08839527 53525,6917.882,95.438,540.895,538.599,0.0
54796.0,STARLINK-5415,PAYLOAD,2023-11-22 19:44:52,15.08844235,0.0001596,53.2171,190.2003,85.9822,274.1352,0.00011549,1.551e-05,0.0,0 STARLINK-5415,1 54796U 22175AQ  23326.82282504  .00001551  00000-0  11549-3 0  9990,2 54796  53.2171 190.2003 0001596  85.9822 274.1352 15.08844235 51484,6917.867,95.437,540.837,538.628,0.0
54796.0,STARLINK-5415,PAYLOAD,2023-11-22 21:20:15,15.088478,0.0001567,53.2169,189.9024,86.7118,273.4054,0.00010316,1.354e-05,0.0,0 STARLINK-5415,1 54796U 22175AQ  23326.88906353  .00001354  00000-0  10316-3 0  9993,2 54796  53.2169 189.9024 0001567  86.7118 273.4054 15.08847800 53657,6917.857,95.437,540.806,538.638,0.0
54796.0,STARLINK-5415,PAYLOAD,2023-11-23 00:31:01,15.08848928,0.0001667,53.2175,189.3053,89.5415,270.5768,0.000197,2.849e-05,0.0,0 STARLINK-5415,1 54796U 22175AQ  23327.02153941  .00002849  00000-0  19700-3 0  9993,2 54796  53.2175 189.3053 0001667  89.5415 270.5768 15.08848928 51517,6917.853,95.437,540.871,538.565,0.0
54796.0,STARLINK-5415,PAYLOAD,2023-11-23 19:35:40,15.08829812,0.0001419,53.2167,185.7393,98.7991,261.3162,-4.0434e-06,-3.52e-06,0.0,0 STARLINK-5415,1 54796U 22175AQ  23327.81643939 -.00000352  00000-0 -40434-5 0  9990,2 54796  53.2167 185.7393 0001419  98.7991 261.3162 15.08829812 51631,6917.912,95.438,540.758,538.795,0.0
54796.0,STARLINK-5415,PAYLOAD,2023-11-23 21:11:03,15.08833537,0.0001398,53.2165,185.4422,96.7328,263.3824,-3.7259e-05,-8.81e-06,0.0,0 STARLINK-5415,1 54796U 22175AQ  23327.88267867 -.00000881  00000-0 -37259-4 0  9996,2 54796  53.2165 185.4422 0001398  96.7328 263.3824 15.08833537 53804,6917.9,95.438,540.732,538.798,0.0
54796.0,STARLINK-5415,PAYLOAD,2023-11-24 14:40:17,15.0884864,0.0001671,53.2169,182.1689,133.4454,226.6678,-0.00010308,-1.929e-05,0.0,0 STARLINK-5415,1 54796U 22175AQ  23328.61131271 -.00001929  00000-0 -10308-3 0  9996,2 54796  53.2169 182.1689 0001671 133.4454 226.6678 15.08848640 53912,6917.854,95.437,540.875,538.563,0.0
54796.0,STARLINK-5415,PAYLOAD,2023-11-24 19:26:26,15.08850519,0.0001298,53.2162,181.2811,107.5728,252.5406,-2.2027e-06,-3.23e-06,0.0,0 STARLINK-5415,1 54796U 22175AQ  23328.81002930 -.00000323  00000-0 -22027-5 0  9997,2 54796  53.2162 181.2811 0001298 107.5728 252.5406 15.08850519 51781,6917.848,95.437,540.611,538.815,0.0
54796.0,STARLINK-5415,PAYLOAD,2023-11-24 21:01:49,15.08859922,0.0001286,53.2166,180.9813,112.6643,247.4485,-6.4803e-05,-1.32e-05,0.0,0 STARLINK-5415,1 54796U 22175AQ  23328.87626448 -.00001320  00000-0 -64803-4 0  9994,2 54796  53.2166 180.9813 0001286 112.6643 247.4485 15.08859922 53951,6917.819,95.436,540.574,538.795,0.0
54796.0,STARLINK-5415,PAYLOAD,2023-11-25 00:12:35,15.08849105,0.0001528,53.2155,180.3873,122.5885,237.5255,0.00015729,2.217e-05,0.0,0 STARLINK-5415,1 54796U 22175AQ  23329.00874952  .00002217  00000-0  15729-3 0  9991,2 54796  53.2155 180.3873 0001528 122.5885 237.5255 15.08849105 53975,6917.853,95.437,540.775,538.661,0.0
54796.0,STARLINK-5415,PAYLOAD,2023-11-25 20:52:37,15.08842852,0.0001471,53.2159,176.5212,97.4024,262.7135,0.00050891,7.821e-05,0.0,0 STARLINK-5415,1 54796U 22175AQ  23329.86987616  .00007821  00000-0  50891-3 0  9992,2 54796  53.2159 176.5212 0001471  97.4024 262.7135 15.08842852 54100,6917.872,95.437,540.754,538.719,0.0
54796.0,STARLINK-5415,PAYLOAD,2023-11-26 19:08:01,15.08836952,0.0001525,53.2159,172.3568,111.2909,248.8246,-6.7432e-05,-1.361e-05,0.0,0 STARLINK-5415,1 54796U 22175AQ  23330.79723708 -.00001361  00000-0 -67432-4 0  9991,2 54796  53.2159 172.3568 0001525 111.2909 248.8246 15.08836952 52082,6917.89,95.438,540.81,538.7,0.0
54796.0,STARLINK-5415,PAYLOAD,2023-11-27 22:09:35,15.08828042,0.0001603,53.216,167.2982,102.2567,257.8604,0.00045924,7.026e-05,0.0,0 STARLINK-5415,1 54796U 22175AQ  23331.92332438  .00007026  00000-0  45924-3 0  9996,2 54796  53.2160 167.2982 0001603 102.2567 257.8604 15.08828042 54412,6917.917,95.438,540.891,538.673,0.0
54796.0,STARLINK-5415,PAYLOAD,2023-11-28 12:28:03,15.08838744,0.0001377,53.2159,164.6284,87.3724,272.7426,0.00013799,1.909e-05,0.0,0 STARLINK-5415,1 54796U 22175AQ  23332.51948068  .00001909  00000-0  13799-3 0  9993,2 54796  53.2159 164.6284 0001377  87.3724 272.7426 15.08838744 54500,6917.884,95.438,540.702,538.797,0.0
54796.0,STARLINK-5415,PAYLOAD,2023-11-28 20:24:58,15.08842977,0.0001343,53.2159,163.1421,87.979,272.1355,0.00017976,2.574e-05,0.0,0 STARLINK-5415,1 54796U 22175AQ  23332.85067887  .00002574  00000-0  17976-3 0  9991,2 54796  53.2159 163.1421 0001343  87.9790 272.1355 15.08842977 52392,6917.871,95.437,540.665,538.807,0.0
54796.0,STARLINK-5415,PAYLOAD,2023-11-29 12:18:50,15.08842244,0.0001438,53.2161,160.1695,83.239,276.8765,6.1082e-05,6.84e-06,0.0,0 STARLINK-5415,1 54796U 22175AQ  23333.51308008  .00000684  00000-0  61082-4 0  9996,2 54796  53.2161 160.1695 0001438  83.2390 276.8765 15.08842244 54659,6917.874,95.437,540.733,538.744,0.0
